*******************************************************************************
Ephemeris / WWW_USER Tue Mar 27 20:24:56 2018 Pasadena, USA      / Horizons    
*******************************************************************************
Target body name: Iapetus (608)                   {source: sat389}
Center body name: Solar System Barycenter (0)     {source: DE431mx}
Center-site name: BODY CENTER
*******************************************************************************
Start time      : A.D. 2000-Jan-01 00:00:00.0000 TDB
Stop  time      : A.D. 2010-Jan-01 00:00:00.0000 TDB
Step-size       : 7200 minutes
*******************************************************************************
Center geodetic : 0.00000000,0.00000000,0.0000000 {E-lon(deg),Lat(deg),Alt(km)}
Center cylindric: 0.00000000,0.00000000,0.0000000 {E-lon(deg),Dxy(km),Dz(km)}
Center radii    : (undefined)                                                  
Output units    : AU-D                                                         
Output type     : GEOMETRIC cartesian states
Output format   : 2 (position and velocity)
Reference frame : ICRF/J2000.0                                                 
Coordinate systm: Ecliptic and Mean Equinox of Reference Epoch                 
*******************************************************************************
JDTDB
   X     Y     Z
   VX    VY    VZ
*******************************************************************************
$$SOE
2455114.500000000 = A.D. 2009-Oct-10 00:00:00.0000 TDB 
  -9.438640804431927E+00  7.121010904470055E-01  3.691702511461719E-01
   3.355688767815191E-04 -7.067554473002008E-03  2.624449287019230E-04
2455119.500000000 = A.D. 2009-Oct-15 00:00:00.0000 TDB 
  -9.435641036627265E+00  6.778709335141907E-01  3.699620211373045E-01
   8.336016889849176E-04 -6.591843878517934E-03  5.278852296373768E-05
2455124.500000000 = A.D. 2009-Oct-20 00:00:00.0000 TDB 
  -9.430668307524256E+00  6.464543242296689E-01  3.697076753415322E-01
   1.114210753712457E-03 -5.954079815653850E-03 -1.510669004084586E-04
2455129.500000000 = A.D. 2009-Oct-25 00:00:00.0000 TDB 
  -9.424947774583547E+00  6.184601442192396E-01  3.685112602572025E-01
   1.126660521976541E-03 -5.239059792723225E-03 -3.190206876569774E-04
2455134.500000000 = A.D. 2009-Oct-30 00:00:00.0000 TDB 
  -9.419879282731555E+00  5.940150985523028E-01  3.666251660688440E-01
   8.541298642790061E-04 -4.553581709571124E-03 -4.225901794910051E-04
2455139.500000000 = A.D. 2009-Nov-04 00:00:00.0000 TDB 
  -9.416835205080174E+00  5.726804826191252E-01  3.644290043382853E-01
   3.261497293113917E-04 -4.013975184590088E-03 -4.404298263489086E-04
2455144.500000000 = A.D. 2009-Nov-09 00:00:00.0000 TDB 
  -9.416910395929779E+00  5.534589526624081E-01  3.623776483262656E-01
  -3.758648116794599E-04 -3.722812501584052E-03 -3.648507503151476E-04
2455149.500000000 = A.D. 2009-Nov-14 00:00:00.0000 TDB 
  -9.420678031093560E+00  5.349324846774491E-01  3.609194897606998E-01
  -1.127863185349803E-03 -3.741391107093687E-03 -2.064926733095653E-04
2455154.500000000 = A.D. 2009-Nov-19 00:00:00.0000 TDB 
  -9.428039202115059E+00  5.155266484187205E-01  3.604042232689893E-01
  -1.790654708966283E-03 -4.068803621242257E-03  6.389860429220388E-06
2455159.500000000 = A.D. 2009-Nov-24 00:00:00.0000 TDB 
  -9.438234028406839E+00  4.938343674832594E-01  3.610090227192648E-01
  -2.244792778512925E-03 -4.640775617723834E-03  2.346409954228976E-04
2455164.500000000 = A.D. 2009-Nov-29 00:00:00.0000 TDB 
  -9.450016715406118E+00  4.688903790784599E-01  3.627094443240236E-01
  -2.418642325610709E-03 -5.349354605456767E-03  4.384658367007637E-04
2455169.500000000 = A.D. 2009-Dec-04 00:00:00.0000 TDB 
  -9.461925724477378E+00  4.403179440223812E-01  3.652994355315653E-01
  -2.297346024951198E-03 -6.072128324853192E-03  5.861802455464198E-04
2455174.500000000 = A.D. 2009-Dec-09 00:00:00.0000 TDB 
  -9.472553613233377E+00  4.083310364287907E-01  3.684452709883773E-01
  -1.915210444401767E-03 -6.698657414962850E-03  6.587505593417291E-04
2455179.500000000 = A.D. 2009-Dec-14 00:00:00.0000 TDB 
  -9.480754621778171E+00  3.736335484222918E-01  3.717509211252027E-01
  -1.339705159786750E-03 -7.144957778101948E-03  6.500690389859617E-04
2455184.500000000 = A.D. 2009-Dec-19 00:00:00.0000 TDB 
  -9.485769470013141E+00  3.372708069043863E-01  3.748180462869516E-01
  -6.557074936851690E-04 -7.358662227042181E-03  5.649330913988868E-04
2455189.500000000 = A.D. 2009-Dec-24 00:00:00.0000 TDB 
  -9.487283123519937E+00  3.004726478226848E-01  3.772946230917974E-01
   4.551088958928277E-05 -7.317900445970832E-03  4.166296538545664E-04
2455194.500000000 = A.D. 2009-Dec-29 00:00:00.0000 TDB 
  -9.485435773637027E+00  2.645062110066436E-01  3.789115749749713E-01
   6.740907935046616E-04 -7.029398772725661E-03  2.248343118161828E-04
